start=new Date('2021-10-04T00:00:00.000Z').valueOf();
sats=[{"OBJECT_NAME":"STARLINK-2435","EPHEMERIS_TYPE":"0","COUNTRY_CODE":"US","REV_AT_EPOCH":"3269","RCS_SIZE":"LARGE","SITE":"AFETR","CENTER_NAME":"EARTH","PERIOD":"95.593","OBJECT_TYPE":"PAYLOAD","NORAD_CAT_ID":"47843","ECCENTRICITY":"0.00012480","TLE_LINE1":"1 47843U 21018BJ  21276.82916266 -.00001190  00000-0 -61020-4 0  9992","FILE":"3143202","MEAN_MOTION":"15.06392370","SEMIMAJOR_AXIS":"6925.372","MEAN_ANOMALY":"285.1019","OBJECT_ID":"2021-018BJ","EPOCH":"2021-10-03T19:53:59.653824","REF_FRAME":"TEME","ELEMENT_SET_NO":"999","APOAPSIS":"548.101","RA_OF_ASC_NODE":"319.4759","ARG_OF_PERICENTER":"75.0108","GP_ID":"186142692","DECAY_DATE":null,"PERIAPSIS":"546.373","MEAN_ELEMENT_THEORY":"SGP4","MEAN_MOTION_DOT":"-0.00001190","TLE_LINE2":"2 47843  53.0564 319.4759 0001248  75.0108 285.1019 15.06392370 32697","LAUNCH_DATE":"2021-03-11","CLASSIFICATION_TYPE":"U","TIME_SYSTEM":"UTC","INCLINATION":"53.0564","BSTAR":"-0.00006102000000","MEAN_MOTION_DDOT":"0.0000000000000"},{"MEAN_MOTION_DOT":"-0.00001816","TLE_LINE2":"2 47844  53.0559 314.4775 0001550  81.5066 278.6098 15.06389594 32740","LAUNCH_DATE":"2021-03-11","PERIAPSIS":"546.172","MEAN_ELEMENT_THEORY":"SGP4","TIME_SYSTEM":"UTC","INCLINATION":"53.0559","BSTAR":"-0.00010310000000","MEAN_MOTION_DDOT":"0.0000000000000","CLASSIFICATION_TYPE":"U","GP_ID":"186141440","RA_OF_ASC_NODE":"314.4775","APOAPSIS":"548.319","ARG_OF_PERICENTER":"81.5066","DECAY_DATE":null,"MEAN_ANOMALY":"278.6098","FILE":"3143202","TLE_LINE1":"1 47844U 21018BK  21276.82778297 -.00001816  00000-0 -10310-3 0  9993","MEAN_MOTION":"15.06389594","SEMIMAJOR_AXIS":"6925.380","REF_FRAME":"TEME","ELEMENT_SET_NO":"999","OBJECT_ID":"2021-018BK","EPOCH":"2021-10-03T19:52:00.448608","REV_AT_EPOCH":"3274","RCS_SIZE":"LARGE","OBJECT_NAME":"STARLINK-2446","EPHEMERIS_TYPE":"0","COUNTRY_CODE":"US","ECCENTRICITY":"0.00015500","SITE":"AFETR","CENTER_NAME":"EARTH","PERIOD":"95.593","OBJECT_TYPE":"PAYLOAD","NORAD_CAT_ID":"47844"},{"ECCENTRICITY":"0.00008160","PERIOD":"95.593","CENTER_NAME":"EARTH","SITE":"AFETR","NORAD_CAT_ID":"47845","OBJECT_TYPE":"PAYLOAD","REV_AT_EPOCH":"3275","RCS_SIZE":"LARGE","COUNTRY_CODE":"US","EPHEMERIS_TYPE":"0","OBJECT_NAME":"STARLINK-2453","REF_FRAME":"TEME","ELEMENT_SET_NO":"999","EPOCH":"2021-10-03T20:18:32.851584","OBJECT_ID":"2021-018BL","MEAN_ANOMALY":"257.6252","TLE_LINE1":"1 47845U 21018BL  21276.84621356  .00000184  00000-0  31250-4 0  9991","FILE":"3143202","SEMIMAJOR_AXIS":"6925.380","MEAN_MOTION":"15.06389630","DECAY_DATE":null,"GP_ID":"186141690","APOAPSIS":"547.810","RA_OF_ASC_NODE":"314.4084","ARG_OF_PERICENTER":"102.4828","INCLINATION":"53.0549","TIME_SYSTEM":"UTC","MEAN_MOTION_DDOT":"0.0000000000000","BSTAR":"0.00003125000000","CLASSIFICATION_TYPE":"U","LAUNCH_DATE":"2021-03-11","TLE_LINE2":"2 47845  53.0549 314.4084 0000816 102.4828 257.6252 15.06389630 32757","MEAN_MOTION_DOT":"0.00000184","PERIAPSIS":"546.680","MEAN_ELEMENT_THEORY":"SGP4"},{"DECAY_DATE":null,"APOAPSIS":"548.262","RA_OF_ASC_NODE":"314.4236","ARG_OF_PERICENTER":"78.6201","GP_ID":"186142928","CLASSIFICATION_TYPE":"U","INCLINATION":"53.0560","TIME_SYSTEM":"UTC","MEAN_MOTION_DDOT":"0.0000000000000","BSTAR":"0.00001347100000","PERIAPSIS":"546.183","MEAN_ELEMENT_THEORY":"SGP4","TLE_LINE2":"2 47846  53.0560 314.4236 0001501  78.6201 281.4957 15.06396962 32800","LAUNCH_DATE":"2021-03-11","MEAN_MOTION_DOT":"-0.00000081","PERIOD":"95.592","CENTER_NAME":"EARTH","SITE":"AFETR","NORAD_CAT_ID":"47846","OBJECT_TYPE":"PAYLOAD","ECCENTRICITY":"0.00015010","EPHEMERIS_TYPE":"0","COUNTRY_CODE":"US","OBJECT_NAME":"STARLINK-2456","REV_AT_EPOCH":"3280","RCS_SIZE":"LARGE","EPOCH":"2021-10-03T20:13:14.005344","OBJECT_ID":"2021-018BM","REF_FRAME":"TEME","ELEMENT_SET_NO":"999","TLE_LINE1":"1 47846U 21018BM  21276.84252321 -.00000081  00000-0  13471-4 0  9996","FILE":"3143202","SEMIMAJOR_AXIS":"6925.358","MEAN_MOTION":"15.06396962","MEAN_ANOMALY":"281.4957"},{"OBJECT_ID":"2021-021A","EPOCH":"2021-10-03T17:08:46.434912","REF_FRAME":"TEME","ELEMENT_SET_NO":"999","TLE_LINE1":"1 47860U 21021A   21276.71442633  .00001434  00000-0  11511-3 0  9993","FILE":"3143202","MEAN_MOTION":"15.06405695","SEMIMAJOR_AXIS":"6925.331","MEAN_ANOMALY":"261.3197","CENTER_NAME":"EARTH","SITE":"AFETR","PERIOD":"95.592","OBJECT_TYPE":"PAYLOAD","NORAD_CAT_ID":"47860","ECCENTRICITY":"0.00008030","OBJECT_NAME":"STARLINK-2258","COUNTRY_CODE":"US","EPHEMERIS_TYPE":"0","REV_AT_EPOCH":"3208","RCS_SIZE":"LARGE","CLASSIFICATION_TYPE":"U","TIME_SYSTEM":"UTC","INCLINATION":"53.0576","MEAN_MOTION_DDOT":"0.0000000000000","BSTAR":"0.00011511000000","PERIAPSIS":"546.640","MEAN_ELEMENT_THEORY":"SGP4","MEAN_MOTION_DOT":"0.00001434","TLE_LINE2":"2 47860  53.0576 344.9873 0000803  98.7883 261.3197 15.06405695 32088","LAUNCH_DATE":"2021-03-14","DECAY_DATE":null,"APOAPSIS":"547.752","RA_OF_ASC_NODE":"344.9873","ARG_OF_PERICENTER":"98.7883","GP_ID":"186141928"},{"DECAY_DATE":null,"GP_ID":"186102920","ARG_OF_PERICENTER":"114.8540","APOAPSIS":"547.736","RA_OF_ASC_NODE":"330.8025","BSTAR":"-0.00007062700000","MEAN_MOTION_DDOT":"0.0000000000000","TIME_SYSTEM":"UTC","INCLINATION":"53.0578","CLASSIFICATION_TYPE":"U","MEAN_MOTION_DOT":"-0.00001333","LAUNCH_DATE":"2021-03-14","TLE_LINE2":"2 47861  53.0578 330.8025 0000697 114.8540 245.2521 15.06387146 32379","MEAN_ELEMENT_THEORY":"SGP4","PERIAPSIS":"546.770","ECCENTRICITY":"0.00006970","OBJECT_TYPE":"PAYLOAD","NORAD_CAT_ID":"47861","SITE":"AFETR","CENTER_NAME":"EARTH","PERIOD":"95.593","RCS_SIZE":"LARGE","REV_AT_EPOCH":"3237","OBJECT_NAME":"STARLINK-2280","EPHEMERIS_TYPE":"0","COUNTRY_CODE":"US","ELEMENT_SET_NO":"999","REF_FRAME":"TEME","OBJECT_ID":"2021-021B","EPOCH":"2021-10-03T12:48:03.031488","MEAN_ANOMALY":"245.2521","MEAN_MOTION":"15.06387146","SEMIMAJOR_AXIS":"6925.388","FILE":"3142499","TLE_LINE1":"1 47861U 21021B   21276.53336842 -.00001333  00000-0 -70627-4 0  9992"},{"ARG_OF_PERICENTER":"96.7562","APOAPSIS":"547.735","RA_OF_ASC_NODE":"324.3983","GP_ID":"186142443","DECAY_DATE":null,"MEAN_ELEMENT_THEORY":"SGP4","PERIAPSIS":"546.757","MEAN_MOTION_DOT":"-0.00001425","TLE_LINE2":"2 47862  53.0570 324.3983 0000706  96.7562 263.3507 15.06389530 32482","LAUNCH_DATE":"2021-03-14","CLASSIFICATION_TYPE":"U","BSTAR":"-0.00007681200000","MEAN_MOTION_DDOT":"0.0000000000000","TIME_SYSTEM":"UTC","INCLINATION":"53.0570","OBJECT_NAME":"STARLINK-2291","EPHEMERIS_TYPE":"0","COUNTRY_CODE":"US","RCS_SIZE":"LARGE","REV_AT_EPOCH":"3248","OBJECT_TYPE":"PAYLOAD","NORAD_CAT_ID":"47862","CENTER_NAME":"EARTH","SITE":"AFETR","PERIOD":"95.593","ECCENTRICITY":"0.00007060","MEAN_MOTION":"15.06389530","SEMIMAJOR_AXIS":"6925.381","TLE_LINE1":"1 47862U 21021C   21276.84529197 -.00001425  00000-0 -76812-4 0  9998","FILE":"3143202","MEAN_ANOMALY":"263.3507","OBJECT_ID":"2021-021C","EPOCH":"2021-10-03T20:17:13.226208","ELEMENT_SET_NO":"999","REF_FRAME":"TEME"},{"EPOCH":"2021-10-03T20:53:01.684896","OBJECT_ID":"2021-021D","ELEMENT_SET_NO":"999","REF_FRAME":"TEME","SEMIMAJOR_AXIS":"6925.325","MEAN_MOTION":"15.06407705","TLE_LINE1":"1 47863U 21021D   21276.87015839  .00000705  00000-0  66204-4 0  9997","FILE":"3143035","MEAN_ANOMALY":"258.9587","NORAD_CAT_ID":"47863","OBJECT_TYPE":"PAYLOAD","PERIOD":"95.592","SITE":"AFETR","CENTER_NAME":"EARTH","ECCENTRICITY":"0.00007830","COUNTRY_CODE":"US","EPHEMERIS_TYPE":"0","OBJECT_NAME":"STARLINK-2293","RCS_SIZE":"LARGE","REV_AT_EPOCH":"3186","CLASSIFICATION_TYPE":"U","BSTAR":"0.00006620400000","MEAN_MOTION_DDOT":"0.0000000000000","INCLINATION":"53.0564","TIME_SYSTEM":"UTC","MEAN_ELEMENT_THEORY":"SGP4","PERIAPSIS":"546.648","LAUNCH_DATE":"2021-03-14","TLE_LINE2":"2 47863  53.0564 334.2887 0000783 101.1490 258.9587 15.06407705 31869","MEAN_MOTION_DOT":"0.00000705","DECAY_DATE":null,"ARG_OF_PERICENTER":"101.1490","APOAPSIS":"547.732","RA_OF_ASC_NODE":"334.2887","GP_ID":"186116771"},{"DECAY_DATE":null,"RA_OF_ASC_NODE":"324.4032","APOAPSIS":"547.775","ARG_OF_PERICENTER":"112.1246","GP_ID":"186141442","CLASSIFICATION_TYPE":"U","INCLINATION":"53.0576","TIME_SYSTEM":"UTC","MEAN_MOTION_DDOT":"0.0000000000000","BSTAR":"-0.00005166300000","PERIAPSIS":"546.707","MEAN_ELEMENT_THEORY":"SGP4","LAUNCH_DATE":"2021-03-14","TLE_LINE2":"2 47864  53.0576 324.4032 0000771 112.1246 247.9825 15.06391049 32467","MEAN_MOTION_DOT":"-0.00001050","PERIOD":"95.593","CENTER_NAME":"EARTH","SITE":"AFETR","NORAD_CAT_ID":"47864","OBJECT_TYPE":"PAYLOAD","ECCENTRICITY":"0.00007710","COUNTRY_CODE":"US","EPHEMERIS_TYPE":"0","OBJECT_NAME":"STARLINK-2304","REV_AT_EPOCH":"3246","RCS_SIZE":"LARGE","EPOCH":"2021-10-03T20:15:51.309504","OBJECT_ID":"2021-021E","REF_FRAME":"TEME","ELEMENT_SET_NO":"999","TLE_LINE1":"1 47864U 21021E   21276.84434386 -.00001050  00000-0 -51663-4 0  9996","FILE":"3143202","SEMIMAJOR_AXIS":"6925.376","MEAN_MOTION":"15.06391049","MEAN_ANOMALY":"247.9825"},{"EPOCH":"2021-10-03T13:53:43.832256","OBJECT_ID":"2021-021F","REF_FRAME":"TEME","ELEMENT_SET_NO":"999","TLE_LINE1":"1 47865U 21021F   21276.57897954 -.00001322  00000-0 -69882-4 0  9995","FILE":"3143202","SEMIMAJOR_AXIS":"6925.381","MEAN_MOTION":"15.06389321","MEAN_ANOMALY":"249.7099","PERIOD":"95.593","SITE":"AFETR","CENTER_NAME":"EARTH","NORAD_CAT_ID":"47865","OBJECT_TYPE":"PAYLOAD","ECCENTRICITY":"0.00010510","EPHEMERIS_TYPE":"0","COUNTRY_CODE":"US","OBJECT_NAME":"STARLINK-2310","REV_AT_EPOCH":"3241","RCS_SIZE":"LARGE","CLASSIFICATION_TYPE":"U","INCLINATION":"53.0556","TIME_SYSTEM":"UTC","MEAN_MOTION_DDOT":"0.0000000000000","BSTAR":"-0.00006988200000","PERIAPSIS":"546.518","MEAN_ELEMENT_THEORY":"SGP4","LAUNCH_DATE":"2021-03-14","TLE_LINE2":"2 47865  53.0556 335.5842 0001051 110.4002 249.7099 15.06389321 32419","MEAN_MOTION_DOT":"-0.00001322","DECAY_DATE":null,"RA_OF_ASC_NODE":"335.5842","APOAPSIS":"547.974","ARG_OF_PERICENTER":"110.4002","GP_ID":"186141692"}];
